OBJECT_NAME,OBJECT_ID,EPOCH,MEAN_MOTION,ECCENTRICITY,INCLINATION,RA_OF_ASC_NODE,ARG_OF_PERICENTER,MEAN_ANOMALY,EPHEMERIS_TYPE,CLASSIFICATION_TYPE,NORAD_CAT_ID,ELEMENT_SET_NO,REV_AT_EPOCH,BSTAR,MEAN_MOTION_DOT,MEAN_MOTION_DDOT
ONEWEB-0250,2021-060B,2024-07-07T13:10:34.241088,13.16601756,.0001753,87.9100,10.0333,80.5655,279.5674,0,U,48968,999,14750,.80903E-4,.44E-6,0
ONEWEB-0252,2021-060D,2024-07-07T22:56:50.318880,13.16593051,.0001984,87.9103,9.9626,88.4318,271.7040,0,U,48970,999,14762,.14854E-3,.7E-6,0
ONEWEB-0253,2021-060E,2024-07-07T22:40:52.891104,13.16593145,.0001949,87.9099,9.9765,80.5209,279.6143,0,U,48971,999,14754,.14276E-3,.67E-6,0
ONEWEB-0254,2021-060F,2024-07-07T21:05:07.863072,13.16593801,.0001919,87.9103,9.9677,80.1249,280.0099,0,U,48972,999,14753,.12039E-3,.59E-6,0
ONEWEB-0255,2021-060G,2024-07-08T01:38:41.247744,13.16591913,.0001783,87.9102,9.9644,89.7563,270.3772,0,U,48973,999,14764,-.21975E-3,-.71E-6,0
ONEWEB-0256,2021-060H,2024-07-07T20:48:01.830240,13.16595663,.0001979,87.9105,10.0085,93.8337,266.3020,0,U,48974,999,14758,.28955E-3,.124E-5,0
ONEWEB-0257,2021-060J,2024-07-07T12:27:34.846848,13.16596121,.0001985,87.9103,10.0478,88.0395,272.0964,0,U,48975,999,14620,.33674E-4,.26E-6,0
ONEWEB-0258,2021-060K,2024-07-07T12:29:51.899712,13.16595922,.0001767,87.9102,10.0758,88.9548,271.1785,0,U,48976,999,14621,.17554E-5,.14E-6,0
ONEWEB-0259,2021-060L,2024-07-08T04:45:39.408192,13.16596506,.0001647,87.9102,9.9258,83.8679,276.2640,0,U,48977,999,14762,.18978E-3,.85E-6,0
ONEWEB-0260,2021-060M,2024-07-07T13:57:39.295584,13.16595851,.0002453,87.9102,10.0774,92.0830,268.0582,0,U,48978,999,14623,.29101E-3,.124E-5,0
ONEWEB-0261,2021-060N,2024-07-07T13:13:10.615584,13.16593681,.0002179,87.9104,10.0776,75.1724,284.9648,0,U,48979,999,14758,-.46349E-3,-.164E-5,0
ONEWEB-0262,2021-060P,2024-07-07T12:45:49.723200,13.16594095,.0001638,87.9101,10.0449,75.0353,285.0959,0,U,48980,999,14624,-.92257E-4,-.22E-6,0
ONEWEB-0263,2021-060Q,2024-07-07T22:38:35.514240,13.16592839,.000191,87.9104,9.9802,74.3986,285.7356,0,U,48981,999,14756,.89257E-4,.47E-6,0
ONEWEB-0264,2021-060R,2024-07-07T21:42:44.812512,13.16579821,.0001783,87.9105,9.9990,86.8401,273.2933,0,U,48982,999,14755,-.34373E-2,-.1301E-4,0
ONEWEB-0266,2021-060T,2024-07-07T13:06:19.848384,13.16593484,.0001732,87.9100,10.0474,90.7973,269.3356,0,U,48984,999,14620,-.70438E-3,-.256E-5,0
ONEWEB-0267,2021-060U,2024-07-07T20:40:02.394048,13.16592781,.0002099,87.9101,9.9862,81.0258,279.1111,0,U,48985,999,14754,-.13866E-3,-.4E-6,0
ONEWEB-0268,2021-060V,2024-07-07T21:43:52.582080,13.16593987,.0001956,87.9102,9.9834,89.1608,270.9747,0,U,48986,999,14781,-.15695E-3,-.47E-6,0
ONEWEB-0269,2021-060W,2024-07-07T13:58:47.155872,13.16594736,.0001854,87.9105,10.0741,93.1108,267.0235,0,U,48987,999,14625,-.12671E-3,-.36E-6,0
ONEWEB-0270,2021-060X,2024-07-07T12:34:25.331520,13.16594305,.0001901,87.9100,10.0674,72.2796,287.8543,0,U,48988,999,14759,-.62555E-3,-.226E-5,0
ONEWEB-0271,2021-060Y,2024-07-07T12:16:10.429248,13.16593003,.0002013,87.9103,10.0470,79.1567,280.9790,0,U,48989,999,14628,.14673E-3,.69E-6,0
ONEWEB-0272,2021-060Z,2024-07-07T12:48:05.556960,13.16596414,.0002037,87.9102,10.0712,83.0111,277.1251,0,U,48990,999,14623,-.17155E-3,-.53E-6,0
ONEWEB-0273,2021-060AA,2024-07-07T13:20:00.422016,13.16593603,.0001736,87.9103,10.0537,83.7727,276.3601,0,U,48991,999,14621,-.60243E-3,-.217E-5,0
ONEWEB-0274,2021-060AB,2024-07-07T13:56:29.627808,13.16593868,.0002367,87.9110,10.0638,89.9184,270.2218,0,U,48992,999,14625,-.11006E-3,-.29E-6,0
ONEWEB-0275,2021-060AC,2024-07-07T20:58:17.018976,13.16593679,.000183,87.9102,9.9864,83.8412,276.2927,0,U,48993,999,14751,.11006E-3,.55E-6,0
ONEWEB-0276,2021-060AD,2024-07-07T12:38:57.920928,13.16592725,.0001809,87.9101,10.0510,80.1379,279.9957,0,U,48994,999,14619,-.47441E-4,-.5E-7,0
ONEWEB-0277,2021-060AE,2024-07-07T22:04:23.690496,13.16592647,.0002067,87.9101,10.0112,74.8340,285.3019,0,U,48995,999,14752,-.81335E-4,-.18E-6,0
ONEWEB-0278,2021-060AF,2024-07-07T12:43:31.586016,13.16589969,.0001563,87.9098,10.0473,92.1387,267.9923,0,U,48996,999,14631,.17003E-2,.663E-5,0
ONEWEB-0279,2021-060AG,2024-07-07T12:54:56.242944,13.16596200,.0002079,87.9101,10.0436,78.5381,281.5983,0,U,48997,999,14754,.11684E-4,.17E-6,0
ONEWEB-0280,2021-060AH,2024-07-07T13:15:27.511200,13.16593961,.0001622,87.9103,10.0424,83.9915,276.1401,0,U,48998,999,14747,-.47276E-3,-.168E-5,0
ONEWEB-0281,2021-060AJ,2024-07-07T11:35:08.514816,13.16595732,.0002009,87.9100,10.0579,93.2301,266.9060,0,U,48999,999,14755,.75031E-4,.42E-6,0
ONEWEB-0282,2021-060AK,2024-07-08T04:43:23.159712,13.16593724,.0001788,87.9101,9.9325,78.3730,281.7601,0,U,49000,999,14763,.21307E-3,.94E-6,0
