ONEWEB-0250             
1 48968U 21060B   24189.54900742  .00000044  00000+0  80903-4 0  9990
2 48968  87.9100  10.0333 0001753  80.5655 279.5674 13.16601756147500
ONEWEB-0252             
1 48970U 21060D   24189.95613795  .00000070  00000+0  14854-3 0  9997
2 48970  87.9103   9.9626 0001984  88.4318 271.7040 13.16593051147629
ONEWEB-0253             
1 48971U 21060E   24189.94505661  .00000067  00000+0  14276-3 0  9993
2 48971  87.9099   9.9765 0001949  80.5209 279.6143 13.16593145147547
ONEWEB-0254             
1 48972U 21060F   24189.87856323  .00000059  00000+0  12039-3 0  9996
2 48972  87.9103   9.9677 0001919  80.1249 280.0099 13.16593801147537
ONEWEB-0255             
1 48973U 21060G   24190.06853296 -.00000071  00000+0 -21975-3 0  9991
2 48973  87.9102   9.9644 0001783  89.7563 270.3772 13.16591913147648
ONEWEB-0256             
1 48974U 21060H   24189.86668785  .00000124  00000+0  28955-3 0  9997
2 48974  87.9105  10.0085 0001979  93.8337 266.3020 13.16595663147586
ONEWEB-0257             
1 48975U 21060J   24189.51915332  .00000026  00000+0  33674-4 0  9999
2 48975  87.9103  10.0478 0001985  88.0395 272.0964 13.16596121146207
ONEWEB-0258             
1 48976U 21060K   24189.52073958  .00000014  00000+0  17554-5 0  9997
2 48976  87.9102  10.0758 0001767  88.9548 271.1785 13.16595922146215
ONEWEB-0259             
1 48977U 21060L   24190.19837278  .00000085  00000+0  18978-3 0  9993
2 48977  87.9102   9.9258 0001647  83.8679 276.2640 13.16596506147625
ONEWEB-0260             
1 48978U 21060M   24189.58170481  .00000124  00000+0  29101-3 0  9995
2 48978  87.9102  10.0774 0002453  92.0830 268.0582 13.16595851146231
ONEWEB-0261             
1 48979U 21060N   24189.55081731 -.00000164  00000+0 -46349-3 0  9991
2 48979  87.9104  10.0776 0002179  75.1724 284.9648 13.16593681147583
ONEWEB-0262             
1 48980U 21060P   24189.53182550 -.00000022  00000+0 -92257-4 0  9995
2 48980  87.9101  10.0449 0001638  75.0353 285.0959 13.16594095146244
ONEWEB-0263             
1 48981U 21060Q   24189.94346660  .00000047  00000+0  89257-4 0  9996
2 48981  87.9104   9.9802 0001910  74.3986 285.7356 13.16592839147563
ONEWEB-0264             
1 48982U 21060R   24189.90468533 -.00001301  00000+0 -34373-2 0  9990
2 48982  87.9105   9.9990 0001783  86.8401 273.2933 13.16579821147559
ONEWEB-0266             
1 48984U 21060T   24189.54606306 -.00000256  00000+0 -70438-3 0  9995
2 48984  87.9100  10.0474 0001732  90.7973 269.3356 13.16593484146205
ONEWEB-0267             
1 48985U 21060U   24189.86113882 -.00000040  00000+0 -13866-3 0  9996
2 48985  87.9101   9.9862 0002099  81.0258 279.1111 13.16592781147546
ONEWEB-0268             
1 48986U 21060V   24189.90546970 -.00000047  00000+0 -15695-3 0  9999
2 48986  87.9102   9.9834 0001956  89.1608 270.9747 13.16593987147819
ONEWEB-0269             
1 48987U 21060W   24189.58249023 -.00000036  00000+0 -12671-3 0  9992
2 48987  87.9105  10.0741 0001854  93.1108 267.0235 13.16594736146259
ONEWEB-0270             
1 48988U 21060X   24189.52390430 -.00000226  00000+0 -62555-3 0  9993
2 48988  87.9100  10.0674 0001901  72.2796 287.8543 13.16594305147596
ONEWEB-0271             
1 48989U 21060Y   24189.51123182  .00000069  00000+0  14673-3 0  9992
2 48989  87.9103  10.0470 0002013  79.1567 280.9790 13.16593003146288
ONEWEB-0272             
1 48990U 21060Z   24189.53339765 -.00000053  00000+0 -17155-3 0  9995
2 48990  87.9102  10.0712 0002037  83.0111 277.1251 13.16596414146237
ONEWEB-0273             
1 48991U 21060AA  24189.55556044 -.00000217  00000+0 -60243-3 0  9997
2 48991  87.9103  10.0537 0001736  83.7727 276.3601 13.16593603146214
ONEWEB-0274             
1 48992U 21060AB  24189.58089847 -.00000029  00000+0 -11006-3 0  9997
2 48992  87.9110  10.0638 0002367  89.9184 270.2218 13.16593868146255
ONEWEB-0275             
1 48993U 21060AC  24189.87380809  .00000055  00000+0  11006-3 0  9999
2 48993  87.9102   9.9864 0001830  83.8412 276.2927 13.16593679147519
ONEWEB-0276             
1 48994U 21060AD  24189.52705927 -.00000005  00000+0 -47441-4 0  9994
2 48994  87.9101  10.0510 0001809  80.1379 279.9957 13.16592725146195
ONEWEB-0277             
1 48995U 21060AE  24189.91971864 -.00000018  00000+0 -81335-4 0  9997
2 48995  87.9101  10.0112 0002067  74.8340 285.3019 13.16592647147520
ONEWEB-0278             
1 48996U 21060AF  24189.53022669  .00000663  00000+0  17003-2 0  9999
2 48996  87.9098  10.0473 0001563  92.1387 267.9923 13.16589969146319
ONEWEB-0279             
1 48997U 21060AG  24189.53815096  .00000017  00000+0  11684-4 0  9998
2 48997  87.9101  10.0436 0002079  78.5381 281.5983 13.16596200147549
ONEWEB-0280             
1 48998U 21060AH  24189.55240175 -.00000168  00000+0 -47276-3 0  9995
2 48998  87.9103  10.0424 0001622  83.9915 276.1401 13.16593961147473
ONEWEB-0281             
1 48999U 21060AJ  24189.48273744  .00000042  00000+0  75031-4 0  9996
2 48999  87.9100  10.0579 0002009  93.2301 266.9060 13.16595732147550
ONEWEB-0282             
1 49000U 21060AK  24190.19679583  .00000094  00000+0  21307-3 0  9994
2 49000  87.9101   9.9325 0001788  78.3730 281.7601 13.16593724147638
